STARLINK-2022           
1 47643U 21012Z   24252.52312864  .00035541  00000+0  23899-2 0  9996
2 47643  53.0558 347.9452 0001721 105.7741 254.3438 15.06446517197276
